CCSDS_OMM_VERS = 2.0
CREATION_DATE  = 
ORIGINATOR     = 

OBJECT_NAME    = ATLAS CENTAUR R/B
OBJECT_ID      = 1972-065B
CENTER_NAME    = EARTH
REF_FRAME      = TEME
TIME_SYSTEM    = UTC
MEAN_ELEMENT_THEORY = SGP/SGP4

EPOCH          = 2026-01-09T02:18:17.967456
MEAN_MOTION    = 14.77495874
ECCENTRICITY   = .00344632
INCLINATION    = 35.0024
RA_OF_ASC_NODE = 294.9441
ARG_OF_PERICENTER = 229.6822
MEAN_ANOMALY   = 130.0865

EPHEMERIS_TYPE = 0
CLASSIFICATION_TYPE = U
NORAD_CAT_ID   = 6155
ELEMENT_SET_NO = 999
REV_AT_EPOCH   = 83244
BSTAR          = .16403824E-3
MEAN_MOTION_DOT = .1177E-4
MEAN_MOTION_DDOT = 0

CCSDS_OMM_VERS = 2.0
CREATION_DATE  = 
ORIGINATOR     = 

OBJECT_NAME    = SL-8 R/B
OBJECT_ID      = 1975-112B
CENTER_NAME    = EARTH
REF_FRAME      = TEME
TIME_SYSTEM    = UTC
MEAN_ELEMENT_THEORY = SGP/SGP4

EPOCH          = 2026-01-09T07:22:38.909856
MEAN_MOTION    = 14.38167358
ECCENTRICITY   = .00165547
INCLINATION    = 74.0612
RA_OF_ASC_NODE = 128.1515
ARG_OF_PERICENTER = 236.7356
MEAN_ANOMALY   = 123.2213

EPHEMERIS_TYPE = 0
CLASSIFICATION_TYPE = U
NORAD_CAT_ID   = 8459
ELEMENT_SET_NO = 999
REV_AT_EPOCH   = 62333
BSTAR          = .11591438E-3
MEAN_MOTION_DOT = .326E-5
MEAN_MOTION_DDOT = 0

CCSDS_OMM_VERS = 2.0
CREATION_DATE  = 
ORIGINATOR     = 

OBJECT_NAME    = SL-3 R/B
OBJECT_ID      = 1977-057B
CENTER_NAME    = EARTH
REF_FRAME      = TEME
TIME_SYSTEM    = UTC
MEAN_ELEMENT_THEORY = SGP/SGP4

EPOCH          = 2026-01-09T05:56:09.889152
MEAN_MOTION    = 15.43729078
ECCENTRICITY   = .00082416
INCLINATION    = 97.5702
RA_OF_ASC_NODE = 178.6641
ARG_OF_PERICENTER = 131.3700
MEAN_ANOMALY   = 228.8257

EPHEMERIS_TYPE = 0
CLASSIFICATION_TYPE = U
NORAD_CAT_ID   = 10114
ELEMENT_SET_NO = 999
REV_AT_EPOCH   = 65915
BSTAR          = .29879058E-3
MEAN_MOTION_DOT = .13425E-3
MEAN_MOTION_DDOT = 0

CCSDS_OMM_VERS = 2.0
CREATION_DATE  = 
ORIGINATOR     = 

OBJECT_NAME    = SEASAT 1
OBJECT_ID      = 1978-064A
CENTER_NAME    = EARTH
REF_FRAME      = TEME
TIME_SYSTEM    = UTC
MEAN_ELEMENT_THEORY = SGP/SGP4

EPOCH          = 2026-01-09T05:08:42.841536
MEAN_MOTION    = 14.46097623
ECCENTRICITY   = .00011767
INCLINATION    = 108.0152
RA_OF_ASC_NODE = 0.6816
ARG_OF_PERICENTER = 270.0768
MEAN_ANOMALY   = 90.0243

EPHEMERIS_TYPE = 0
CLASSIFICATION_TYPE = U
NORAD_CAT_ID   = 10967
ELEMENT_SET_NO = 999
REV_AT_EPOCH   = 49791
BSTAR          = .1346945E-3
MEAN_MOTION_DOT = .344E-5
MEAN_MOTION_DDOT = 0

CCSDS_OMM_VERS = 2.0
CREATION_DATE  = 
ORIGINATOR     = 

OBJECT_NAME    = SL-14 R/B
OBJECT_ID      = 1979-011B
CENTER_NAME    = EARTH
REF_FRAME      = TEME
TIME_SYSTEM    = UTC
MEAN_ELEMENT_THEORY = SGP/SGP4

EPOCH          = 2026-01-09T06:55:59.299392
MEAN_MOTION    = 14.91815623
ECCENTRICITY   = .00146746
INCLINATION    = 82.5252
RA_OF_ASC_NODE = 152.9166
ARG_OF_PERICENTER = 254.7060
MEAN_ANOMALY   = 105.2538

EPHEMERIS_TYPE = 0
CLASSIFICATION_TYPE = U
NORAD_CAT_ID   = 11267
ELEMENT_SET_NO = 999
REV_AT_EPOCH   = 51992
BSTAR          = .81829324E-4
MEAN_MOTION_DOT = .852E-5
MEAN_MOTION_DDOT = 0

CCSDS_OMM_VERS = 2.0
CREATION_DATE  = 
ORIGINATOR     = 

OBJECT_NAME    = SL-8 R/B
OBJECT_ID      = 1979-089B
CENTER_NAME    = EARTH
REF_FRAME      = TEME
TIME_SYSTEM    = UTC
MEAN_ELEMENT_THEORY = SGP/SGP4

EPOCH          = 2026-01-09T05:37:25.471776
MEAN_MOTION    = 14.42303110
ECCENTRICITY   = .00152413
INCLINATION    = 74.0671
RA_OF_ASC_NODE = 201.0914
ARG_OF_PERICENTER = 24.8444
MEAN_ANOMALY   = 335.3442

EPHEMERIS_TYPE = 0
CLASSIFICATION_TYPE = U
NORAD_CAT_ID   = 11574
ELEMENT_SET_NO = 999
REV_AT_EPOCH   = 42753
BSTAR          = .11051317E-3
MEAN_MOTION_DOT = .339E-5
MEAN_MOTION_DDOT = 0

CCSDS_OMM_VERS = 2.0
CREATION_DATE  = 
ORIGINATOR     = 

OBJECT_NAME    = SL-14 R/B
OBJECT_ID      = 1980-005B
CENTER_NAME    = EARTH
REF_FRAME      = TEME
TIME_SYSTEM    = UTC
MEAN_ELEMENT_THEORY = SGP/SGP4

EPOCH          = 2026-01-09T06:18:37.685088
MEAN_MOTION    = 14.90834158
ECCENTRICITY   = .00159336
INCLINATION    = 82.5143
RA_OF_ASC_NODE = 3.5919
ARG_OF_PERICENTER = 7.7260
MEAN_ANOMALY   = 352.4201

EPHEMERIS_TYPE = 0
CLASSIFICATION_TYPE = U
NORAD_CAT_ID   = 11672
ELEMENT_SET_NO = 999
REV_AT_EPOCH   = 46763
BSTAR          = .76342893E-4
MEAN_MOTION_DOT = .778E-5
MEAN_MOTION_DDOT = 0

CCSDS_OMM_VERS = 2.0
CREATION_DATE  = 
ORIGINATOR     = 

OBJECT_NAME    = SL-8 R/B
OBJECT_ID      = 1981-003B
CENTER_NAME    = EARTH
REF_FRAME      = TEME
TIME_SYSTEM    = UTC
MEAN_ELEMENT_THEORY = SGP/SGP4

EPOCH          = 2026-01-08T22:50:21.984576
MEAN_MOTION    = 15.08200935
ECCENTRICITY   = .02736811
INCLINATION    = 82.9384
RA_OF_ASC_NODE = 345.1602
ARG_OF_PERICENTER = 26.9444
MEAN_ANOMALY   = 334.5695

EPHEMERIS_TYPE = 0
CLASSIFICATION_TYPE = U
NORAD_CAT_ID   = 12139
ELEMENT_SET_NO = 999
REV_AT_EPOCH   = 30566
BSTAR          = .63004189E-3
MEAN_MOTION_DOT = .2387E-3
MEAN_MOTION_DDOT = 0

CCSDS_OMM_VERS = 2.0
CREATION_DATE  = 
ORIGINATOR     = 

OBJECT_NAME    = SL-3 R/B
OBJECT_ID      = 1981-046B
CENTER_NAME    = EARTH
REF_FRAME      = TEME
TIME_SYSTEM    = UTC
MEAN_ELEMENT_THEORY = SGP/SGP4

EPOCH          = 2026-01-09T05:53:28.276224
MEAN_MOTION    = 15.40304728
ECCENTRICITY   = .00182337
INCLINATION    = 81.2330
RA_OF_ASC_NODE = 1.0141
ARG_OF_PERICENTER = 221.8995
MEAN_ANOMALY   = 138.0852

EPHEMERIS_TYPE = 0
CLASSIFICATION_TYPE = U
NORAD_CAT_ID   = 12465
ELEMENT_SET_NO = 999
REV_AT_EPOCH   = 42927
BSTAR          = .34129134E-3
MEAN_MOTION_DOT = .13868E-3
MEAN_MOTION_DDOT = 0

CCSDS_OMM_VERS = 2.0
CREATION_DATE  = 
ORIGINATOR     = 

OBJECT_NAME    = SL-3 R/B
OBJECT_ID      = 1981-103B
CENTER_NAME    = EARTH
REF_FRAME      = TEME
TIME_SYSTEM    = UTC
MEAN_ELEMENT_THEORY = SGP/SGP4

EPOCH          = 2026-01-09T05:38:51.318816
MEAN_MOTION    = 15.20627226
ECCENTRICITY   = .00141152
INCLINATION    = 81.1593
RA_OF_ASC_NODE = 283.1465
ARG_OF_PERICENTER = 121.1809
MEAN_ANOMALY   = 239.0808

EPHEMERIS_TYPE = 0
CLASSIFICATION_TYPE = U
NORAD_CAT_ID   = 12904
ELEMENT_SET_NO = 999
REV_AT_EPOCH   = 96419
BSTAR          = .34066836E-3
MEAN_MOTION_DOT = .7516E-4
MEAN_MOTION_DDOT = 0

CCSDS_OMM_VERS = 2.0
CREATION_DATE  = 
ORIGINATOR     = 

OBJECT_NAME    = SL-3 R/B
OBJECT_ID      = 1982-013B
CENTER_NAME    = EARTH
REF_FRAME      = TEME
TIME_SYSTEM    = UTC
MEAN_ELEMENT_THEORY = SGP/SGP4

EPOCH          = 2026-01-09T06:28:35.708736
MEAN_MOTION    = 15.21367652
ECCENTRICITY   = .00232836
INCLINATION    = 81.1729
RA_OF_ASC_NODE = 230.3797
ARG_OF_PERICENTER = 22.2223
MEAN_ANOMALY   = 338.0012

EPHEMERIS_TYPE = 0
CLASSIFICATION_TYPE = U
NORAD_CAT_ID   = 13068
ELEMENT_SET_NO = 999
REV_AT_EPOCH   = 39531
BSTAR          = .19622121E-3
MEAN_MOTION_DOT = .4455E-4
MEAN_MOTION_DDOT = 0

CCSDS_OMM_VERS = 2.0
CREATION_DATE  = 
ORIGINATOR     = 

OBJECT_NAME    = SL-3 R/B
OBJECT_ID      = 1982-039B
CENTER_NAME    = EARTH
REF_FRAME      = TEME
TIME_SYSTEM    = UTC
MEAN_ELEMENT_THEORY = SGP/SGP4

EPOCH          = 2026-01-09T05:06:32.223744
MEAN_MOTION    = 15.09721863
ECCENTRICITY   = .00297328
INCLINATION    = 81.1687
RA_OF_ASC_NODE = 284.4850
ARG_OF_PERICENTER = 159.4098
MEAN_ANOMALY   = 200.8333

EPHEMERIS_TYPE = 0
CLASSIFICATION_TYPE = U
NORAD_CAT_ID   = 13154
ELEMENT_SET_NO = 999
REV_AT_EPOCH   = 37266
BSTAR          = .19500073E-3
MEAN_MOTION_DOT = .3199E-4
MEAN_MOTION_DDOT = 0

