ATLAS CENTAUR R/B       
1 06155U 72065B   26009.09604129  .00001177  00000+0  16404-3 0  9998
2 06155  35.0024 294.9441 0034463 229.6822 130.0865 14.77495874832447
SL-8 R/B                
1 08459U 75112B   26009.30739479  .00000326  00000+0  11591-3 0  9991
2 08459  74.0612 128.1515 0016554 236.7356 123.2213 14.38167358623331
SL-3 R/B                
1 10114U 77057B   26009.24733668  .00013425  00000+0  29879-3 0  9991
2 10114  97.5702 178.6641 0008241 131.3700 228.8257 15.43729078659158
SEASAT 1                
1 10967U 78064A   26009.21438474  .00000344  00000+0  13469-3 0  9994
2 10967 108.0152   0.6816 0001176 270.0768  90.0243 14.46097623497918
SL-14 R/B               
1 11267U 79011B   26009.28888078  .00000852  00000+0  81829-4 0  9997
2 11267  82.5252 152.9166 0014674 254.7060 105.2538 14.91815623519929
SL-8 R/B                
1 11574U 79089B   26009.23432259  .00000339  00000+0  11051-3 0  9993
2 11574  74.0671 201.0914 0015241  24.8444 335.3442 14.42303110427535
SL-14 R/B               
1 11672U 80005B   26009.26293617  .00000778  00000+0  76343-4 0  9991
2 11672  82.5143   3.5919 0015933   7.7260 352.4201 14.90834158467638
SL-8 R/B                
1 12139U 81003B   26008.95164334  .00023870  00000+0  63004-3 0  9994
2 12139  82.9384 345.1602 0273681  26.9444 334.5695 15.08200935305667
SL-3 R/B                
1 12465U 81046B   26009.24546616  .00013868  00000+0  34129-3 0  9995
2 12465  81.2330   1.0141 0018233 221.8995 138.0852 15.40304728429272
SL-3 R/B                
1 12904U 81103B   26009.23531619  .00007516  00000+0  34067-3 0  9997
2 12904  81.1593 283.1465 0014115 121.1809 239.0808 15.20627226964190
SL-3 R/B                
1 13068U 82013B   26009.26985774  .00004455  00000+0  19622-3 0  9997
2 13068  81.1729 230.3797 0023283  22.2223 338.0012 15.21367652395316
SL-3 R/B                
1 13154U 82039B   26009.21287296  .00003199  00000+0  19500-3 0  9999
2 13154  81.1687 284.4850 0029732 159.4098 200.8333 15.09721863372662
